ZACUBE-1 (TSHEPISOSAT)  
1 39417U 13066B   25137.85300304  .00005449  00000+0  47563-3 0  9990
2 39417  97.7794  94.9939 0045629 126.3557 234.1888 14.96431681621519
GOMX-1                  
1 39430U 13066Q   25137.84996112  .00001997  00000+0  31738-3 0  9993
2 39430  97.6860 357.9079 0131114 265.2204  93.4019 14.67557462612078
CUBEBUG-2 (LO-74)       
1 39440U 13066AA  25137.77528394  .00004856  00000+0  49515-3 0  9998
2 39440  97.8485  82.4979 0060494 255.0772 104.3742 14.89785612619247
FUNCUBE-1 (AO-73)       
1 39444U 13066AE  25137.43253946  .00009270  00000+0  69770-3 0  9993
2 39444  97.7829  99.2630 0043486 104.2768 256.3291 15.01986470620119
UWE-3                   
1 39446U 13066AG  25137.34440404  .00005167  00000+0  49278-3 0  9994
2 39446  97.8229  88.4031 0052797 194.2450 165.7283 14.92726156618442
UNISAT-6                
1 40012U 14033C   25137.50511646  .00003850  00000+0  44826-3 0  9996
2 40012  97.7404 294.3456 0046522 291.1047  68.5198 14.85076100587375
DUCHIFAT-1              
1 40021U 14033M   25137.47518357  .00029065  00000+0  10757-2 0  9999
2 40021  98.0965 149.8231 0010046  49.9767 310.2350 15.27592660594798
QB50P1                  
1 40025U 14033R   25137.88386540  .00010808  00000+0  66537-3 0  9998
2 40025  98.0831 119.2230 0012057 125.9502 234.2846 15.10137570593724
LILACSAT-2              
1 40908U 15049K   25137.84753023  .00014752  00000+0  39124-3 0  9990
2 40908  97.5072 157.6528 0007757 233.0485 127.0050 15.38392931534739
FOX-1A (AO-85)          
1 40967U 15058D   25137.41163811  .00003127  00000+0  28071-3 0  9991
2 40967  64.7763  66.0938 0164229 202.9535 156.4181 14.87887450 54628
CAS-2T & KS-1Q          
1 41847U 16066G   25137.45940250  .00001189  00000+0  17966-3 0  9990
2 41847  98.4204 212.1219 0345189 248.3802 108.0291 14.43414397447688
ZHUHAI-1 02 (CAS-4B)    
1 42759U 17034B   25137.89420492  .00078219  00000+0  91178-3 0  9993
2 42759  43.0073  96.8046 0018145 135.8460 224.3856 15.60516204439056
ZHUHAI-1 01 (CAS-4A)    
1 42761U 17034D   25137.88045230  .00080099  00000+0  89466-3 0  9994
2 42761  43.0111  94.2697 0019443 140.2503 219.9790 15.61580397439070
RADFXSAT (FOX-1B)       
1 43017U 17073E   25137.38165385  .00009468  00000+0  49066-3 0  9994
2 43017  97.5285   8.7444 0172300 245.4428 112.8756 15.04374034405721
