[
  {
    "OBJECT_NAME": "ZACUBE-1 (TSHEPISOSAT)",
    "OBJECT_ID": "2013-066B",
    "EPOCH": "2025-05-17T20:28:19.462656",
    "MEAN_MOTION": 14.96431681,
    "ECCENTRICITY": 0.0045629,
    "INCLINATION": 97.7794,
    "RA_OF_ASC_NODE": 94.9939,
    "ARG_OF_PERICENTER": 126.3557,
    "MEAN_ANOMALY": 234.1888,
    "EPHEMERIS_TYPE": 0,
    "CLASSIFICATION_TYPE": "U",
    "NORAD_CAT_ID": 39417,
    "ELEMENT_SET_NO": 999,
    "REV_AT_EPOCH": 62151,
    "BSTAR": 0.00047563,
    "MEAN_MOTION_DOT": 5.449e-05,
    "MEAN_MOTION_DDOT": 0
  },
  {
    "OBJECT_NAME": "GOMX-1",
    "OBJECT_ID": "2013-066Q",
    "EPOCH": "2025-05-17T20:23:56.640768",
    "MEAN_MOTION": 14.67557462,
    "ECCENTRICITY": 0.0131114,
    "INCLINATION": 97.686,
    "RA_OF_ASC_NODE": 357.9079,
    "ARG_OF_PERICENTER": 265.2204,
    "MEAN_ANOMALY": 93.4019,
    "EPHEMERIS_TYPE": 0,
    "CLASSIFICATION_TYPE": "U",
    "NORAD_CAT_ID": 39430,
    "ELEMENT_SET_NO": 999,
    "REV_AT_EPOCH": 61207,
    "BSTAR": 0.00031738,
    "MEAN_MOTION_DOT": 1.997e-05,
    "MEAN_MOTION_DDOT": 0
  },
  {
    "OBJECT_NAME": "CUBEBUG-2 (LO-74)",
    "OBJECT_ID": "2013-066AA",
    "EPOCH": "2025-05-17T18:36:24.532416",
    "MEAN_MOTION": 14.89785612,
    "ECCENTRICITY": 0.0060494,
    "INCLINATION": 97.8485,
    "RA_OF_ASC_NODE": 82.4979,
    "ARG_OF_PERICENTER": 255.0772,
    "MEAN_ANOMALY": 104.3742,
    "EPHEMERIS_TYPE": 0,
    "CLASSIFICATION_TYPE": "U",
    "NORAD_CAT_ID": 39440,
    "ELEMENT_SET_NO": 999,
    "REV_AT_EPOCH": 61924,
    "BSTAR": 0.00049515,
    "MEAN_MOTION_DOT": 4.856e-05,
    "MEAN_MOTION_DDOT": 0
  },
  {
    "OBJECT_NAME": "FUNCUBE-1 (AO-73)",
    "OBJECT_ID": "2013-066AE",
    "EPOCH": "2025-05-17T10:22:51.409344",
    "MEAN_MOTION": 15.0198647,
    "ECCENTRICITY": 0.0043486,
    "INCLINATION": 97.7829,
    "RA_OF_ASC_NODE": 99.263,
    "ARG_OF_PERICENTER": 104.2768,
    "MEAN_ANOMALY": 256.3291,
    "EPHEMERIS_TYPE": 0,
    "CLASSIFICATION_TYPE": "U",
    "NORAD_CAT_ID": 39444,
    "ELEMENT_SET_NO": 999,
    "REV_AT_EPOCH": 62011,
    "BSTAR": 0.0006977,
    "MEAN_MOTION_DOT": 9.27e-05,
    "MEAN_MOTION_DDOT": 0
  },
  {
    "OBJECT_NAME": "UWE-3",
    "OBJECT_ID": "2013-066AG",
    "EPOCH": "2025-05-17T08:15:56.509056",
    "MEAN_MOTION": 14.92726156,
    "ECCENTRICITY": 0.0052797,
    "INCLINATION": 97.8229,
    "RA_OF_ASC_NODE": 88.4031,
    "ARG_OF_PERICENTER": 194.245,
    "MEAN_ANOMALY": 165.7283,
    "EPHEMERIS_TYPE": 0,
    "CLASSIFICATION_TYPE": "U",
    "NORAD_CAT_ID": 39446,
    "ELEMENT_SET_NO": 999,
    "REV_AT_EPOCH": 61844,
    "BSTAR": 0.00049278,
    "MEAN_MOTION_DOT": 5.167e-05,
    "MEAN_MOTION_DDOT": 0
  },
  {
    "OBJECT_NAME": "UNISAT-6",
    "OBJECT_ID": "2014-033C",
    "EPOCH": "2025-05-17T12:07:22.062144",
    "MEAN_MOTION": 14.850761,
    "ECCENTRICITY": 0.0046522,
    "INCLINATION": 97.7404,
    "RA_OF_ASC_NODE": 294.3456,
    "ARG_OF_PERICENTER": 291.1047,
    "MEAN_ANOMALY": 68.5198,
    "EPHEMERIS_TYPE": 0,
    "CLASSIFICATION_TYPE": "U",
    "NORAD_CAT_ID": 40012,
    "ELEMENT_SET_NO": 999,
    "REV_AT_EPOCH": 58737,
    "BSTAR": 0.00044826,
    "MEAN_MOTION_DOT": 3.85e-05,
    "MEAN_MOTION_DDOT": 0
  },
  {
    "OBJECT_NAME": "DUCHIFAT-1",
    "OBJECT_ID": "2014-033M",
    "EPOCH": "2025-05-17T11:24:15.860448",
    "MEAN_MOTION": 15.2759266,
    "ECCENTRICITY": 0.0010046,
    "INCLINATION": 98.0965,
    "RA_OF_ASC_NODE": 149.8231,
    "ARG_OF_PERICENTER": 49.9767,
    "MEAN_ANOMALY": 310.235,
    "EPHEMERIS_TYPE": 0,
    "CLASSIFICATION_TYPE": "U",
    "NORAD_CAT_ID": 40021,
    "ELEMENT_SET_NO": 999,
    "REV_AT_EPOCH": 59479,
    "BSTAR": 0.0010757,
    "MEAN_MOTION_DOT": 0.00029065,
    "MEAN_MOTION_DDOT": 0
  },
  {
    "OBJECT_NAME": "QB50P1",
    "OBJECT_ID": "2014-033R",
    "EPOCH": "2025-05-17T21:12:45.970560",
    "MEAN_MOTION": 15.1013757,
    "ECCENTRICITY": 0.0012057,
    "INCLINATION": 98.0831,
    "RA_OF_ASC_NODE": 119.223,
    "ARG_OF_PERICENTER": 125.9502,
    "MEAN_ANOMALY": 234.2846,
    "EPHEMERIS_TYPE": 0,
    "CLASSIFICATION_TYPE": "U",
    "NORAD_CAT_ID": 40025,
    "ELEMENT_SET_NO": 999,
    "REV_AT_EPOCH": 59372,
    "BSTAR": 0.00066537,
    "MEAN_MOTION_DOT": 0.00010808,
    "MEAN_MOTION_DDOT": 0
  },
  {
    "OBJECT_NAME": "LILACSAT-2",
    "OBJECT_ID": "2015-049K",
    "EPOCH": "2025-05-17T20:20:26.611872",
    "MEAN_MOTION": 15.38392931,
    "ECCENTRICITY": 0.0007757,
    "INCLINATION": 97.5072,
    "RA_OF_ASC_NODE": 157.6528,
    "ARG_OF_PERICENTER": 233.0485,
    "MEAN_ANOMALY": 127.005,
    "EPHEMERIS_TYPE": 0,
    "CLASSIFICATION_TYPE": "U",
    "NORAD_CAT_ID": 40908,
    "ELEMENT_SET_NO": 999,
    "REV_AT_EPOCH": 53473,
    "BSTAR": 0.00039124,
    "MEAN_MOTION_DOT": 0.00014752,
    "MEAN_MOTION_DDOT": 0
  },
  {
    "OBJECT_NAME": "FOX-1A (AO-85)",
    "OBJECT_ID": "2015-058D",
    "EPOCH": "2025-05-17T09:52:45.532704",
    "MEAN_MOTION": 14.8788745,
    "ECCENTRICITY": 0.0164229,
    "INCLINATION": 64.7763,
    "RA_OF_ASC_NODE": 66.0938,
    "ARG_OF_PERICENTER": 202.9535,
    "MEAN_ANOMALY": 156.4181,
    "EPHEMERIS_TYPE": 0,
    "CLASSIFICATION_TYPE": "U",
    "NORAD_CAT_ID": 40967,
    "ELEMENT_SET_NO": 999,
    "REV_AT_EPOCH": 5462,
    "BSTAR": 0.00028071,
    "MEAN_MOTION_DOT": 3.127e-05,
    "MEAN_MOTION_DDOT": 0
  },
  {
    "OBJECT_NAME": "CAS-2T & KS-1Q",
    "OBJECT_ID": "2016-066G",
    "EPOCH": "2025-05-17T11:01:32.376000",
    "MEAN_MOTION": 14.43414397,
    "ECCENTRICITY": 0.0345189,
    "INCLINATION": 98.4204,
    "RA_OF_ASC_NODE": 212.1219,
    "ARG_OF_PERICENTER": 248.3802,
    "MEAN_ANOMALY": 108.0291,
    "EPHEMERIS_TYPE": 0,
    "CLASSIFICATION_TYPE": "U",
    "NORAD_CAT_ID": 41847,
    "ELEMENT_SET_NO": 999,
    "REV_AT_EPOCH": 44768,
    "BSTAR": 0.00017966,
    "MEAN_MOTION_DOT": 1.189e-05,
    "MEAN_MOTION_DDOT": 0
  },
  {
    "OBJECT_NAME": "ZHUHAI-1 02 (CAS-4B)",
    "OBJECT_ID": "2017-034B",
    "EPOCH": "2025-05-17T21:27:39.305088",
    "MEAN_MOTION": 15.60516204,
    "ECCENTRICITY": 0.0018145,
    "INCLINATION": 43.0073,
    "RA_OF_ASC_NODE": 96.8046,
    "ARG_OF_PERICENTER": 135.846,
    "MEAN_ANOMALY": 224.3856,
    "EPHEMERIS_TYPE": 0,
    "CLASSIFICATION_TYPE": "U",
    "NORAD_CAT_ID": 42759,
    "ELEMENT_SET_NO": 999,
    "REV_AT_EPOCH": 43905,
    "BSTAR": 0.00091178,
    "MEAN_MOTION_DOT": 0.00078219,
    "MEAN_MOTION_DDOT": 0
  },
  {
    "OBJECT_NAME": "ZHUHAI-1 01 (CAS-4A)",
    "OBJECT_ID": "2017-034D",
    "EPOCH": "2025-05-17T21:07:51.078720",
    "MEAN_MOTION": 15.61580397,
    "ECCENTRICITY": 0.0019443,
    "INCLINATION": 43.0111,
    "RA_OF_ASC_NODE": 94.2697,
    "ARG_OF_PERICENTER": 140.2503,
    "MEAN_ANOMALY": 219.979,
    "EPHEMERIS_TYPE": 0,
    "CLASSIFICATION_TYPE": "U",
    "NORAD_CAT_ID": 42761,
    "ELEMENT_SET_NO": 999,
    "REV_AT_EPOCH": 43907,
    "BSTAR": 0.00089466,
    "MEAN_MOTION_DOT": 0.00080099,
    "MEAN_MOTION_DDOT": 0
  },
  {
    "OBJECT_NAME": "RADFXSAT (FOX-1B)",
    "OBJECT_ID": "2017-073E",
    "EPOCH": "2025-05-17T09:09:34.892640",
    "MEAN_MOTION": 15.04374034,
    "ECCENTRICITY": 0.01723,
    "INCLINATION": 97.5285,
    "RA_OF_ASC_NODE": 8.7444,
    "ARG_OF_PERICENTER": 245.4428,
    "MEAN_ANOMALY": 112.8756,
    "EPHEMERIS_TYPE": 0,
    "CLASSIFICATION_TYPE": "U",
    "NORAD_CAT_ID": 43017,
    "ELEMENT_SET_NO": 999,
    "REV_AT_EPOCH": 40572,
    "BSTAR": 0.00049066,
    "MEAN_MOTION_DOT": 9.468e-05,
    "MEAN_MOTION_DDOT": 0
  }
]